{
    "links": {
        "self": "http://www.neowsapp.com/rest/v1/neo/3986775?api_key=iIulBulltgU6a56xZRHN4H3l9WmuAYTsLGpBGhQ2"
    },
    "id": "3986775",
    "neo_reference_id": "3986775",
    "name": "(2020 BZ1)",
    "designation": "2020 BZ1",
    "nasa_jpl_url": "http://ssd.jpl.nasa.gov/sbdb.cgi?sstr=3986775",
    "absolute_magnitude_h": 26.889,
    "estimated_diameter": {
        "kilometers": {
            "estimated_diameter_min": 0.0111366604,
            "estimated_diameter_max": 0.0249023297
        },
        "meters": {
            "estimated_diameter_min": 11.1366604018,
            "estimated_diameter_max": 24.9023297006
        },
        "miles": {
            "estimated_diameter_min": 0.0069199978,
            "estimated_diameter_max": 0.0154735855
        },
        "feet": {
            "estimated_diameter_min": 36.5376009125,
            "estimated_diameter_max": 81.7005593751
        }
    },
    "is_potentially_hazardous_asteroid": false,
    "close_approach_data": [
        {
            "close_approach_date": "2020-01-15",
            "close_approach_date_full": "2020-Jan-15 01:28",
            "epoch_date_close_approach": 1579051680000,
            "relative_velocity": {
                "kilometers_per_second": "7.7081516731",
                "kilometers_per_hour": "27749.3460230264",
                "miles_per_hour": "17242.3644774744"
            },
            "miss_distance": {
                "astronomical": "0.0063999957",
                "lunar": "2.4895983273",
                "kilometers": "957425.724729159",
                "miles": "594916.7586900342"
            },
            "orbiting_body": "Earth"
        },
        {
            "close_approach_date": "2020-01-15",
            "close_approach_date_full": "2020-Jan-15 12:37",
            "epoch_date_close_approach": 1579091820000,
            "relative_velocity": {
                "kilometers_per_second": "7.8549275869",
                "kilometers_per_hour": "28277.7393128352",
                "miles_per_hour": "17570.6875191336"
            },
            "miss_distance": {
                "astronomical": "0.0056990989",
                "lunar": "2.2169494721",
                "kilometers": "852573.056359343",
                "miles": "529764.3317232134"
            },
            "orbiting_body": "Moon"
        },
        {
            "close_approach_date": "2022-08-19",
            "close_approach_date_full": "2022-Aug-19 04:14",
            "epoch_date_close_approach": 1660882440000,
            "relative_velocity": {
                "kilometers_per_second": "13.5979624563",
                "kilometers_per_hour": "48952.6648426451",
                "miles_per_hour": "30417.2822184758"
            },
            "miss_distance": {
                "astronomical": "0.099870137",
                "lunar": "38.849483293",
                "kilometers": "14940359.77180819",
                "miles": "9283509.080165422"
            },
            "orbiting_body": "Mars"
        },
        {
            "close_approach_date": "2086-02-06",
            "close_approach_date_full": "2086-Feb-06 19:00",
            "epoch_date_close_approach": 3663860400000,
            "relative_velocity": {
                "kilometers_per_second": "11.6044639869",
                "kilometers_per_hour": "41776.0703528036",
                "miles_per_hour": "25958.025492274"
            },
            "miss_distance": {
                "astronomical": "0.1295708533",
                "lunar": "50.4030619337",
                "kilometers": "19383523.667762471",
                "miles": "12044363.1026092598"
            },
            "orbiting_body": "Earth"
        }
    ],
    "orbital_data": {
        "orbit_id": "3",
        "orbit_determination_date": "2020-01-24 05:54:56",
        "first_observation_date": "2020-01-19",
        "last_observation_date": "2020-01-23",
        "data_arc_in_days": 4,
        "observations_used": 20,
        "orbit_uncertainty": "7",
        "minimum_orbit_intersection": ".00641754",
        "jupiter_tisserand_invariant": "3.640",
        "epoch_osculation": "2459000.5",
        "eccentricity": ".5198802395224784",
        "semi_major_axis": "2.019019025032602",
        "inclination": "3.018204658046376",
        "ascending_node_longitude": "300.6813877538766",
        "orbital_period": "1047.873949515055",
        "perihelion_distance": ".9693709306982122",
        "perihelion_argument": "155.4083455146855",
        "aphelion_distance": "3.068667119366992",
        "perihelion_time": "2458849.259180102587",
        "mean_anomaly": "51.95920290629061",
        "mean_motion": ".3435527719403697",
        "equinox": "J2000",
        "orbit_class": {
            "orbit_class_type": "APO",
            "orbit_class_description": "Near-Earth asteroid orbits which cross the Earth’s orbit similar to that of 1862 Apollo",
            "orbit_class_range": "a (semi-major axis) > 1.0 AU; q (perihelion) < 1.017 AU"
        }
    },
    "is_sentry_object": false
}